[{"OBJECT_NAME":"STARLINK-34609","OBJECT_ID":"2025-147P","EPOCH":"2026-03-09T18:22:24.814272","MEAN_MOTION":15.30183918,"ECCENTRICITY":0.00011648,"INCLINATION":53.1589,"RA_OF_ASC_NODE":232.4432,"ARG_OF_PERICENTER":75.4751,"MEAN_ANOMALY":284.6379,"EPHEMERIS_TYPE":0,"CLASSIFICATION_TYPE":"U","NORAD_CAT_ID":64768,"ELEMENT_SET_NO":999,"REV_AT_EPOCH":3890,"BSTAR":0.0013162148,"MEAN_MOTION_DOT":0.00038808,"MEAN_MOTION_DDOT":0},{"OBJECT_NAME":"NOAA 17 DEB","OBJECT_ID":"2002-032DK","EPOCH":"2026-03-06T06:53:22.349472","MEAN_MOTION":15.29547844,"ECCENTRICITY":0.00135803,"INCLINATION":98.6735,"RA_OF_ASC_NODE":77.6727,"ARG_OF_PERICENTER":131.2945,"MEAN_ANOMALY":228.9463,"EPHEMERIS_TYPE":0,"CLASSIFICATION_TYPE":"U","NORAD_CAT_ID":49481,"ELEMENT_SET_NO":999,"REV_AT_EPOCH":24998,"BSTAR":0.011623019,"MEAN_MOTION_DOT":0.00349096,"MEAN_MOTION_DDOT":0}]
